[{"OBJECT_NAME":"STARLINK-6336","OBJECT_ID":"2023-078X","EPOCH":"2026-03-09T21:29:58.591392","MEAN_MOTION":14.98326686,"ECCENTRICITY":0.00027955,"INCLINATION":70,"RA_OF_ASC_NODE":323.9674,"ARG_OF_PERICENTER":270.6387,"MEAN_ANOMALY":89.4452,"EPHEMERIS_TYPE":0,"CLASSIFICATION_TYPE":"U","NORAD_CAT_ID":56788,"ELEMENT_SET_NO":999,"REV_AT_EPOCH":15320,"BSTAR":-6.2157875e-5,"MEAN_MOTION_DOT":-8.34e-6,"MEAN_MOTION_DDOT":0},{"OBJECT_NAME":"CZ-4C DEB","OBJECT_ID":"2010-038F","EPOCH":"2026-03-09T16:58:31.008576","MEAN_MOTION":14.75157058,"ECCENTRICITY":0.01220425,"INCLINATION":97.8388,"RA_OF_ASC_NODE":141.0256,"ARG_OF_PERICENTER":182.6031,"MEAN_ANOMALY":177.4559,"EPHEMERIS_TYPE":0,"CLASSIFICATION_TYPE":"U","NORAD_CAT_ID":37570,"ELEMENT_SET_NO":999,"REV_AT_EPOCH":82359,"BSTAR":0.0011084777,"MEAN_MOTION_DOT":8.398e-5,"MEAN_MOTION_DDOT":0}]
